{
  "type": "FeatureCollection",
  "features": [
    {
      "type": "Feature",
      "properties": {
        "norad_id": 36632,
        "name": "COSMOS 2251 DEB",
        "group": "cosmos-2251-debris",
        "lat": 38.91424460699605,
        "lon": 77.26113061329293,
        "alt_km": 757.3007698512602,
        "timestamp": "2025-12-24T09:46:31.402523+00:00",
        "meta_object_name": "COSMOS 2251 DEB",
        "meta_object_id": "1993-036BEW",
        "meta_epoch": "2025-12-23T01:31:35.391648",
        "meta_mean_motion": 14.43225962,
        "meta_eccentricity": 0.00327185,
        "meta_inclination": 74.0013,
        "meta_ra_of_asc_node": 273.1539,
        "meta_arg_of_pericenter": 18.5865,
        "meta_mean_anomaly": 341.6478,
        "meta_ephemeris_type": 0,
        "meta_classification_type": "U",
        "meta_norad_cat_id": 36632,
        "meta_element_set_no": 999,
        "meta_rev_at_epoch": 65364,
        "meta_bstar": 0.0008144408,
        "meta_mean_motion_dot": 2.732e-05,
        "meta_mean_motion_ddot": 0,
        "tle_line1": "1 36632U 93036BEW 25357.06360407  .00002732  00000+0  81444-3 0  9996",
        "tle_line2": "2 36632  74.0013 273.1539 0032718  18.5865 341.6478 14.43225962653646"
      },
      "geometry": {
        "type": "Point",
        "coordinates": [
          77.26113061329293,
          38.91424460699605
        ]
      }
    },
    {
      "type": "Feature",
      "properties": {
        "norad_id": 37084,
        "name": "COSMOS 2251 DEB",
        "group": "cosmos-2251-debris",
        "lat": 45.89124779585418,
        "lon": 154.86627342600627,
        "alt_km": 624.4524078722761,
        "timestamp": "2025-12-24T09:46:31.402533+00:00",
        "meta_object_name": "COSMOS 2251 DEB",
        "meta_object_id": "1993-036BFE",
        "meta_epoch": "2025-12-23T17:33:44.746560",
        "meta_mean_motion": 15.01160045,
        "meta_eccentricity": 0.00968597,
        "meta_inclination": 74.0271,
        "meta_ra_of_asc_node": 139.0556,
        "meta_arg_of_pericenter": 216.9972,
        "meta_mean_anomaly": 142.4512,
        "meta_ephemeris_type": 0,
        "meta_classification_type": "U",
        "meta_norad_cat_id": 37084,
        "meta_element_set_no": 999,
        "meta_rev_at_epoch": 66432,
        "meta_bstar": 0.00071089306,
        "meta_mean_motion_dot": 0.00010048,
        "meta_mean_motion_ddot": 0,
        "tle_line1": "1 37084U 93036BFE 25357.73176790  .00010048  00000+0  71089-3 0  9995",
        "tle_line2": "2 37084  74.0271 139.0556 0096859 216.9972 142.4512 15.01160045664320"
      },
      "geometry": {
        "type": "Point",
        "coordinates": [
          154.86627342600627,
          45.89124779585418
        ]
      }
    },
    {
      "type": "Feature",
      "properties": {
        "norad_id": 37085,
        "name": "COSMOS 2251 DEB",
        "group": "cosmos-2251-debris",
        "lat": 46.09745170111691,
        "lon": -151.99193234198165,
        "alt_km": 416.6400481640421,
        "timestamp": "2025-12-24T09:46:31.402543+00:00",
        "meta_object_name": "COSMOS 2251 DEB",
        "meta_object_id": "1993-036BFF",
        "meta_epoch": "2025-12-13T09:00:31.802112",
        "meta_mean_motion": 15.41681601,
        "meta_eccentricity": 0.00213151,
        "meta_inclination": 73.9479,
        "meta_ra_of_asc_node": 214.6598,
        "meta_arg_of_pericenter": 52.8263,
        "meta_mean_anomaly": 307.4887,
        "meta_ephemeris_type": 0,
        "meta_classification_type": "U",
        "meta_norad_cat_id": 37085,
        "meta_element_set_no": 999,
        "meta_rev_at_epoch": 67147,
        "meta_bstar": 0.0024657072,
        "meta_mean_motion_dot": 0.00106285,
        "meta_mean_motion_ddot": 0,
        "tle_line1": "1 37085U 93036BFF 25347.37536808  .00106285  00000+0  24657-2 0  9992",
        "tle_line2": "2 37085  73.9479 214.6598 0021315  52.8263 307.4887 15.41681601671472"
      },
      "geometry": {
        "type": "Point",
        "coordinates": [
          -151.99193234198165,
          46.09745170111691
        ]
      }
    },
    {
      "type": "Feature",
      "properties": {
        "norad_id": 37089,
        "name": "COSMOS 2251 DEB",
        "group": "cosmos-2251-debris",
        "lat": 22.72361291174726,
        "lon": 130.60772137090575,
        "alt_km": 805.5825488312157,
        "timestamp": "2025-12-24T09:46:31.402553+00:00",
        "meta_object_name": "COSMOS 2251 DEB",
        "meta_object_id": "1993-036BFK",
        "meta_epoch": "2025-12-21T15:34:23.731392",
        "meta_mean_motion": 14.53121083,
        "meta_eccentricity": 0.0134841,
        "meta_inclination": 74.0377,
        "meta_ra_of_asc_node": 128.9285,
        "meta_arg_of_pericenter": 227.2834,
        "meta_mean_anomaly": 131.6914,
        "meta_ephemeris_type": 0,
        "meta_classification_type": "U",
        "meta_norad_cat_id": 37089,
        "meta_element_set_no": 999,
        "meta_rev_at_epoch": 66239,
        "meta_bstar": 0.0022471011,
        "meta_mean_motion_dot": 0.00010467,
        "meta_mean_motion_ddot": 0,
        "tle_line1": "1 37089U 93036BFK 25355.64888578  .00010467  00000+0  22471-2 0  9997",
        "tle_line2": "2 37089  74.0377 128.9285 0134841 227.2834 131.6914 14.53121083662390"
      },
      "geometry": {
        "type": "Point",
        "coordinates": [
          130.60772137090575,
          22.72361291174726
        ]
      }
    },
    {
      "type": "Feature",
      "properties": {
        "norad_id": 37094,
        "name": "COSMOS 2251 DEB",
        "group": "cosmos-2251-debris",
        "lat": -49.37966165350413,
        "lon": -60.822248070869215,
        "alt_km": 830.8128470952097,
        "timestamp": "2025-12-24T09:46:31.402564+00:00",
        "meta_object_name": "COSMOS 2251 DEB",
        "meta_object_id": "1993-036BFQ",
        "meta_epoch": "2025-12-10T15:45:11.030688",
        "meta_mean_motion": 14.37808892,
        "meta_eccentricity": 0.0084108,
        "meta_inclination": 74.1091,
        "meta_ra_of_asc_node": 124.9809,
        "meta_arg_of_pericenter": 91.4784,
        "meta_mean_anomaly": 269.6007,
        "meta_ephemeris_type": 0,
        "meta_classification_type": "U",
        "meta_norad_cat_id": 37094,
        "meta_element_set_no": 999,
        "meta_rev_at_epoch": 84476,
        "meta_bstar": 0.0015212,
        "meta_mean_motion_dot": 4.753e-05,
        "meta_mean_motion_ddot": 0,
        "tle_line1": "1 37094U 93036BFQ 25344.65637767  .00004753  00000+0  15212-2 0  9990",
        "tle_line2": "2 37094  74.1091 124.9809 0084108  91.4784 269.6007 14.37808892844763"
      },
      "geometry": {
        "type": "Point",
        "coordinates": [
          -60.822248070869215,
          -49.37966165350413
        ]
      }
    },
    {
      "type": "Feature",
      "properties": {
        "norad_id": 37095,
        "name": "COSMOS 2251 DEB",
        "group": "cosmos-2251-debris",
        "lat": 26.14552646189591,
        "lon": -18.821276450919942,
        "alt_km": 835.746199412948,
        "timestamp": "2025-12-24T09:46:31.402574+00:00",
        "meta_object_name": "COSMOS 2251 DEB",
        "meta_object_id": "1993-036BFR",
        "meta_epoch": "2025-12-20T05:48:30.438144",
        "meta_mean_motion": 14.03423265,
        "meta_eccentricity": 0.01937256,
        "meta_inclination": 73.8447,
        "meta_ra_of_asc_node": 176.6944,
        "meta_arg_of_pericenter": 233.1449,
        "meta_mean_anomaly": 125.1788,
        "meta_ephemeris_type": 0,
        "meta_classification_type": "U",
        "meta_norad_cat_id": 37095,
        "meta_element_set_no": 999,
        "meta_rev_at_epoch": 62741,
        "meta_bstar": 0.00075143733,
        "meta_mean_motion_dot": 1.362e-05,
        "meta_mean_motion_ddot": 0,
        "tle_line1": "1 37095U 93036BFR 25354.24201896  .00001362  00000+0  75144-3 0  9991",
        "tle_line2": "2 37095  73.8447 176.6944 0193725 233.1449 125.1788 14.03423265627411"
      },
      "geometry": {
        "type": "Point",
        "coordinates": [
          -18.821276450919942,
          26.14552646189591
        ]
      }
    },
    {
      "type": "Feature",
      "properties": {
        "norad_id": 37108,
        "name": "COSMOS 2251 DEB",
        "group": "cosmos-2251-debris",
        "lat": -11.45356874860865,
        "lon": 55.64129496830275,
        "alt_km": 810.1573231407128,
        "timestamp": "2025-12-24T09:46:31.402585+00:00",
        "meta_object_name": "COSMOS 2251 DEB",
        "meta_object_id": "1993-036BGE",
        "meta_epoch": "2025-12-23T20:30:19.001376",
        "meta_mean_motion": 14.41379372,
        "meta_eccentricity": 0.0090288,
        "meta_inclination": 74.0439,
        "meta_ra_of_asc_node": 59.9876,
        "meta_arg_of_pericenter": 133.8681,
        "meta_mean_anomaly": 226.9981,
        "meta_ephemeris_type": 0,
        "meta_classification_type": "U",
        "meta_norad_cat_id": 37108,
        "meta_element_set_no": 999,
        "meta_rev_at_epoch": 85667,
        "meta_bstar": 0.0010155,
        "meta_mean_motion_dot": 3.428e-05,
        "meta_mean_motion_ddot": 0,
        "tle_line1": "1 37108U 93036BGE 25357.85438659  .00003428  00000+0  10155-2 0  9990",
        "tle_line2": "2 37108  74.0439  59.9876 0090288 133.8681 226.9981 14.41379372856679"
      },
      "geometry": {
        "type": "Point",
        "coordinates": [
          55.64129496830275,
          -11.45356874860865
        ]
      }
    }
  ]
}